NORAD_CAT_ID,OBJECT_NAME,OBJECT_TYPE,EPOCH,MEAN_MOTION,ECCENTRICITY,INCLINATION,RA_OF_ASC_NODE,ARG_OF_PERICENTER,MEAN_ANOMALY,BSTAR,MEAN_MOTION_DOT,MEAN_MOTION_DDOT,TLE_LINE0,TLE_LINE1,TLE_LINE2,SEMIMAJOR_AXIS,PERIOD,APOGEE,PERIGEE,DECAYED
51716.0,STARLINK-3543,PAYLOAD,2024-03-24 21:07:41,15.08848942,0.0001102,53.2171,298.0226,95.1836,264.9282,0.0001468,2.05e-05,0.0,0 STARLINK-3543,1 51716U 22016C   24084.88034481  .00002050  00000-0  14680-3 0  9994,2 51716  53.2171 298.0226 0001102  95.1836 264.9282 15.08848942115511,6917.853,95.437,540.48,538.956,0.0
51716.0,STARLINK-3543,PAYLOAD,2024-03-25 20:58:30,15.08816705,0.0001608,53.2171,293.5687,98.2508,261.8666,-0.00020839,-3.601e-05,0.0,0 STARLINK-3543,1 51716U 22016C   24085.87396871 -.00003601  00000-0 -20839-3 0  9996,2 51716  53.2171 293.5687 0001608  98.2508 261.8666 15.08816705116732,6917.952,95.439,540.929,538.704,0.0
51716.0,STARLINK-3543,PAYLOAD,2024-03-26 06:30:49,15.08827704,0.0001306,53.2171,291.7782,88.5216,271.5926,9.8252e-06,-1.32e-06,0.0,0 STARLINK-3543,1 51716U 22016C   24086.27141037 -.00000132  00000-0  98252-5 0  9994,2 51716  53.2171 291.7782 0001306  88.5216 271.5926 15.08827704116795,6917.918,95.438,540.686,538.879,0.0
51716.0,STARLINK-3543,PAYLOAD,2024-03-26 14:27:45,15.0882476,0.0001096,53.216,290.29,82.0452,278.0664,8.2185e-05,1.02e-05,0.0,0 STARLINK-3543,1 51716U 22016C   24086.60261219  .00001020  00000-0  82185-4 0  9999,2 51716  53.2160 290.2900 0001096  82.0452 278.0664 15.08824760115773,6917.927,95.439,540.55,539.034,0.0
51716.0,STARLINK-3543,PAYLOAD,2024-03-26 22:24:40,15.08845591,0.000125,53.2167,288.8056,90.8849,269.2286,0.00024009,3.536e-05,0.0,0 STARLINK-3543,1 51716U 22016C   24086.93379880  .00003536  00000-0  24009-3 0  9993,2 51716  53.2167 288.8056 0001250  90.8849 269.2286 15.08845591115827,6917.863,95.437,540.593,538.864,0.0
51716.0,STARLINK-3543,PAYLOAD,2024-03-27 12:43:09,15.08826286,0.0001516,53.2165,286.1313,82.3073,277.8091,0.00034518,5.208e-05,0.0,0 STARLINK-3543,1 51716U 22016C   24087.52996852  .00005208  00000-0  34518-3 0  9997,2 51716  53.2165 286.1313 0001516  82.3073 277.8091 15.08826286116989,6917.922,95.438,540.836,538.739,0.0
51716.0,STARLINK-3543,PAYLOAD,2024-03-27 22:15:28,15.08834472,0.0001561,53.2162,284.3469,87.4234,272.6937,0.00029258,4.371e-05,0.0,0 STARLINK-3543,1 51716U 22016C   24087.92740790  .00004371  00000-0  29258-3 0  9994,2 51716  53.2162 284.3469 0001561  87.4234 272.6937 15.08834472115979,6917.897,95.438,540.842,538.682,0.0
51716.0,STARLINK-3543,PAYLOAD,2024-03-28 12:33:57,15.08828179,0.0001176,53.2153,281.6673,84.5639,275.5487,5.835e-05,6.41e-06,0.0,0 STARLINK-3543,1 51716U 22016C   24088.52357688  .00000641  00000-0  58350-4 0  9993,2 51716  53.2153 281.6673 0001176  84.5639 275.5487 15.08828179116065,6917.917,95.438,540.595,538.968,0.0
51716.0,STARLINK-3543,PAYLOAD,2024-03-28 18:55:29,15.08833026,0.0001093,53.2148,280.4785,85.6081,274.5036,7.0755e-05,8.38e-06,0.0,0 STARLINK-3543,1 51716U 22016C   24088.78853357  .00000838  00000-0  70755-4 0  9996,2 51716  53.2148 280.4785 0001093  85.6081 274.5036 15.08833026117170,6917.902,95.438,540.523,539.011,0.0
51716.0,STARLINK-3543,PAYLOAD,2024-03-29 12:24:43,15.08845431,0.0001897,53.2157,277.2104,84.5911,275.5298,2.8516e-05,1.66e-06,0.0,0 STARLINK-3543,1 51716U 22016C   24089.51716572  .00000166  00000-0  28516-4 0  9997,2 51716  53.2157 277.2104 0001897  84.5911 275.5298 15.08845431117287,6917.864,95.437,541.041,538.416,0.0
51716.0,STARLINK-3543,PAYLOAD,2024-03-29 18:46:15,15.08847172,0.0001803,53.2155,276.0212,84.6677,275.4521,5.0665e-05,5.18e-06,0.0,0 STARLINK-3543,1 51716U 22016C   24089.78212262  .00000518  00000-0  50665-4 0  9994,2 51716  53.2155 276.0212 0001803  84.6677 275.4521 15.08847172116257,6917.858,95.437,540.971,538.476,0.0
51716.0,STARLINK-3543,PAYLOAD,2024-03-30 05:53:57,15.08846957,0.0001675,53.2147,273.9363,98.5926,261.5256,-4.4685e-05,-9.99e-06,0.0,0 STARLINK-3543,1 51716U 22016C   24090.24580247 -.00000999  00000-0 -44685-4 0  9998,2 51716  53.2147 273.9363 0001675  98.5926 261.5256 15.08846957116328,6917.859,95.437,540.883,538.565,0.0
51716.0,STARLINK-3543,PAYLOAD,2024-03-30 18:37:02,15.08830973,0.0001898,53.2136,271.5584,90.8899,269.2311,0.0001722,2.453e-05,0.0,0 STARLINK-3543,1 51716U 22016C   24090.77572796  .00002453  00000-0  17220-3 0  9995,2 51716  53.2136 271.5584 0001898  90.8899 269.2311 15.08830973117471,6917.908,95.438,541.086,538.46,0.0
51716.0,STARLINK-3543,PAYLOAD,2024-03-30 21:47:49,15.08838582,0.0001834,53.2147,270.9649,86.6426,273.4776,4.5677e-05,4.39e-06,0.0,0 STARLINK-3543,1 51716U 22016C   24090.90820607  .00000439  00000-0  45677-4 0  9997,2 51716  53.2147 270.9649 0001834  86.6426 273.4776 15.08838582116427,6917.885,95.438,541.018,538.481,0.0
51716.0,STARLINK-3543,PAYLOAD,2024-03-31 12:06:17,15.08838426,0.0001788,53.2147,268.289,86.0025,274.1171,5.1074e-05,5.25e-06,0.0,0 STARLINK-3543,1 51716U 22016C   24091.50436492  .00000525  00000-0  51074-4 0  9993,2 51716  53.2147 268.2890 0001788  86.0025 274.1171 15.08838426116516,6917.885,95.438,540.987,538.513,0.0
51716.0,STARLINK-3543,PAYLOAD,2024-03-31 18:27:49,15.08835976,0.0001299,53.2168,267.0958,95.2802,264.8338,0.00010585,1.397e-05,0.0,0 STARLINK-3543,1 51716U 22016C   24091.76932447  .00001397  00000-0  10585-3 0  9991,2 51716  53.2168 267.0958 0001299  95.2802 264.8338 15.08835976116555,6917.893,95.438,540.656,538.859,0.0
51716.0,STARLINK-3543,PAYLOAD,2024-04-01 11:57:04,15.08832752,0.0001403,53.2169,263.8287,82.2383,277.8768,4.0957e-05,3.64e-06,0.0,0 STARLINK-3543,1 51716U 22016C   24092.49797037  .00000364  00000-0  40957-4 0  9996,2 51716  53.2169 263.8287 0001403  82.2383 277.8768 15.08832752117733,6917.903,95.438,540.738,538.797,0.0
51716.0,STARLINK-3543,PAYLOAD,2024-04-02 03:50:54,15.08861009,0.0001309,53.2179,260.8549,90.4549,269.6593,-9.4365e-05,-1.79e-05,0.0,0 STARLINK-3543,1 51716U 22016C   24093.16035593 -.00001790  00000-0 -94365-4 0  9991,2 51716  53.2179 260.8549 0001309  90.4549 269.6593 15.08861009117835,6917.816,95.436,540.587,538.776,0.0
51716.0,STARLINK-3543,PAYLOAD,2024-04-02 10:12:28,15.08837745,0.0001659,53.2174,259.6662,91.4487,268.6695,8.6677e-05,1.092e-05,0.0,0 STARLINK-3543,1 51716U 22016C   24093.42532810  .00001092  00000-0  86677-4 0  9994,2 51716  53.2174 259.6662 0001659  91.4487 268.6695 15.08837745117878,6917.887,95.438,540.9,538.605,0.0
51716.0,STARLINK-3543,PAYLOAD,2024-04-02 18:09:24,15.08830605,0.000122,53.2177,258.1793,97.413,262.7,-2.5715e-06,-3.29e-06,0.0,0 STARLINK-3543,1 51716U 22016C   24093.75653555 -.00000329  00000-0 -25715-5 0  9991,2 51716  53.2177 258.1793 0001220  97.4130 262.7000 15.08830605117924,6917.909,95.438,540.618,538.93,0.0
51716.0,STARLINK-3543,PAYLOAD,2024-04-03 19:35:34,15.08842044,0.0001193,53.2177,253.421,98.6721,261.4407,8.7204e-05,1.1e-05,0.0,0 STARLINK-3543,1 51716U 22016C   24094.81636868  .00001100  00000-0  87204-4 0  9993,2 51716  53.2177 253.4210 0001193  98.6721 261.4407 15.08842044118089,6917.874,95.437,540.564,538.914,0.0
51716.0,STARLINK-3543,PAYLOAD,2024-04-04 14:40:12,15.08833238,0.0001415,53.2182,249.8524,86.9746,273.1408,0.00010284,1.349e-05,0.0,0 STARLINK-3543,1 51716U 22016C   24095.61125415  .00001349  00000-0  10284-3 0  9991,2 51716  53.2182 249.8524 0001415  86.9746 273.1408 15.08833238117137,6917.901,95.438,540.745,538.787,0.0
51716.0,STARLINK-3543,PAYLOAD,2024-04-04 17:50:58,15.08835335,0.0001401,53.2183,249.2571,87.17,272.9452,7.6819e-05,9.35e-06,0.0,0 STARLINK-3543,1 51716U 22016C   24095.74373251  .00000935  00000-0  76819-4 0  9995,2 51716  53.2183 249.2571 0001401  87.1700 272.9452 15.08835335118229,6917.895,95.438,540.729,538.79,0.0
51716.0,STARLINK-3543,PAYLOAD,2024-04-05 03:23:16,15.08843612,0.0001324,53.2186,247.4739,85.4055,274.7088,0.00014679,2.049e-05,0.0,0 STARLINK-3543,1 51716U 22016C   24096.14116663  .00002049  00000-0  14679-3 0  9995,2 51716  53.2186 247.4739 0001324  85.4055 274.7088 15.08843612118284,6917.869,95.437,540.65,538.818,0.0
51716.0,STARLINK-3543,PAYLOAD,2024-04-05 14:30:58,15.0884145,0.0001376,53.2183,245.3915,111.7312,248.3827,1.9948e-05,3e-07,0.0,0 STARLINK-3543,1 51716U 22016C   24096.60484915  .00000030  00000-0  19948-4 0  9997,2 51716  53.2183 245.3915 0001376 111.7312 248.3827 15.08841450117285,6917.876,95.437,540.693,538.789,0.0
51716.0,STARLINK-3543,PAYLOAD,2024-04-05 17:41:44,15.08845301,0.0001181,53.2174,244.7942,104.8567,255.2556,5.0382e-05,5.14e-06,0.0,0 STARLINK-3543,1 51716U 22016C   24096.73732521  .00000514  00000-0  50382-4 0  9994,2 51716  53.2174 244.7942 0001181 104.8567 255.2556 15.08845301117305,6917.864,95.437,540.546,538.912,0.0
51716.0,STARLINK-3543,PAYLOAD,2024-04-06 09:35:36,15.08833734,0.0001668,53.2181,241.8232,84.7474,275.3708,1.6047e-05,-3.3e-07,0.0,0 STARLINK-3543,1 51716U 22016C   24097.39973308 -.00000033  00000-0  16047-4 0  9994,2 51716  53.2181 241.8232 0001668  84.7474 275.3708 15.08833734118474,6917.9,95.438,540.918,538.611,0.0
51716.0,STARLINK-3543,PAYLOAD,2024-04-06 15:57:09,15.08834612,0.0001545,53.2182,240.6341,84.9432,275.1737,1.5474e-05,-4.2e-07,0.0,0 STARLINK-3543,1 51716U 22016C   24097.66469306 -.00000042  00000-0  15474-4 0  9995,2 51716  53.2182 240.6341 0001545  84.9432 275.1737 15.08834612117445,6917.897,95.438,540.831,538.693,0.0
51716.0,STARLINK-3543,PAYLOAD,2024-04-07 09:26:23,15.08835597,0.0001687,53.2165,237.3616,90.3394,269.7792,2.2566e-05,7.1e-07,0.0,0 STARLINK-3543,1 51716U 22016C   24098.39333265  .00000071  00000-0  22566-4 0  9991,2 51716  53.2165 237.3616 0001687  90.3394 269.7792 15.08835597117554,6917.894,95.438,540.926,538.592,0.0
51716.0,STARLINK-3543,PAYLOAD,2024-04-07 15:47:56,15.08837316,0.0001614,53.217,236.1714,94.2927,265.825,3.5475e-05,2.77e-06,0.0,0 STARLINK-3543,1 51716U 22016C   24098.65829186  .00000277  00000-0  35475-4 0  9993,2 51716  53.2170 236.1714 0001614  94.2927 265.8250 15.08837316118661,6917.889,95.438,540.87,538.637,0.0
